LYNK TOWER 4            
1 55034U 23001AB  26068.67743801  .00009160  00000+0  30014-3 0  9997
2 55034  97.3324 128.5940 0010321 112.3386 247.8950 15.31819885176588
STARLINK-31117          
1 58776U 24011M   26068.14384878  .00000728  00000+0  36721-4 0  9995
2 58776  53.1623  16.4221 0001090  73.5689 286.5432 15.30189861120183
